COSMOS 2361 [-]         
1 25590U 98076A   23172.59379852  .00000077  00000+0  67649-4 0  9993
2 25590  82.9344 293.2790 0030127 261.8954 108.4711 13.73063852226890
COSMOS 2378 [-]         
1 26818U 01023A   23172.47394921  .00000067  00000+0  54960-4 0  9995
2 26818  82.9276 310.7304 0032445 205.3515 217.1932 13.74003971104913
COSMOS 2389 [-]         
1 27436U 02026A   23172.60127782  .00000071  00000+0  57750-4 0  9995
2 27436  82.9511 256.8285 0047661  66.6620  56.1539 13.75015258 57093
COSMOS 2398 [-]         
1 27818U 03023A   23172.60705042  .00000070  00000+0  59586-4 0  9996
2 27818  82.9482 219.6195 0032826 106.2126   4.2934 13.72248982  4027
COSMOS 2407 [+]         
1 28380U 04028A   23172.52684865  .00000074  00000+0  59915-4 0  9997
2 28380  82.9595 163.1914 0040677  66.3548  52.0950 13.76157365949717
COSMOS 2414 [+]         
1 28521U 05002A   23172.42153692  .00000069  00000+0  44836-4 0  9995
2 28521  82.9489 149.2839 0039631 200.2081 159.7516 13.87708516932410
COSMOS 2429 [-]         
1 32052U 07038A   23172.60534323  .00000077  00000+0  64082-4 0  9998
2 32052  82.9809 290.3095 0039363  45.2480 315.1867 13.75001875791639
COSMOS 2454 [-]         
1 35635U 09039A   23172.45962900  .00000081  00000+0  52574-4 0  9998
2 35635  82.9556 134.9184 0020152 139.3252 342.5229 13.89737661705756
COSMOS 2463 [+]         
1 36519U 10017A   23172.58565215  .00000054  00000+0  43067-4 0  9997
2 36519  82.9605 331.6709 0034790 279.2144 152.8552 13.71511356658298
